[
	{
		"name": "Enim Nisl Elementum Associates",
		"build_number": "MC9480599516681830731380904",
		"street_number": "561 Vitae Road",
		"postal_code": "6998",
		"city": "Liberia",
		"province": "G",
		"building_permit_number": "5199536649063228"
	},
	{
		"name": "Amet Corp.",
		"build_number": "GR0887411591940931267354413",
		"street_number": "3072 A, Rd.",
		"postal_code": "837432",
		"city": "Frankston",
		"province": "Victoria",
		"building_permit_number": "5129045101804654"
	},
	{
		"name": "Ipsum PC",
		"build_number": "DE06481936009824083462",
		"street_number": "Ap #910-2244 Inceptos Av.",
		"postal_code": "71811",
		"city": "Newtown",
		"province": "MG",
		"building_permit_number": "4444084266573195"
	},
	{
		"name": "Proin Vel Arcu Inc.",
		"build_number": "SK1189960101758322916635",
		"street_number": "P.O. Box 453, 422 Placerat, Road",
		"postal_code": "603382",
		"city": "Bama",
		"province": "Borno",
		"building_permit_number": "4922616136306899"
	},
	{
		"name": "Aliquam Nisl Nulla PC",
		"build_number": "PK5322975495125780464909",
		"street_number": "Ap #498-9799 Felis Road",
		"postal_code": "8824",
		"city": "Silchar",
		"province": "AS",
		"building_permit_number": "4197329793777313"
	},
	{
		"name": "Libero LLP",
		"build_number": "IE08JNIL01297590721449",
		"street_number": "9840 Quis Road",
		"postal_code": "987454",
		"city": "Chestermere",
		"province": "AB",
		"building_permit_number": "4970561543619265"
	},
	{
		"name": "Lobortis LLP",
		"build_number": "KW3956540490913618836696122031",
		"street_number": "9238 Purus Rd.",
		"postal_code": "6148",
		"city": "Ophoven",
		"province": "L.",
		"building_permit_number": "5123385270428844"
	},
	{
		"name": "Iaculis Lacus Pede Industries",
		"build_number": "PS076653015845208412810855027",
		"street_number": "P.O. Box 126, 4347 Eget Av.",
		"postal_code": "2751PO",
		"city": "Vienna",
		"province": "Wie",
		"building_permit_number": "5235325518311007"
	},
	{
		"name": "Proin Consulting",
		"build_number": "BA732077649610658805",
		"street_number": "119-141 Massa St.",
		"postal_code": "51447",
		"city": "Armidale",
		"province": "New South Wales",
		"building_permit_number": "5450428530462089"
	},
	{
		"name": "Enim Suspendisse Inc.",
		"build_number": "GE78255242932920209655",
		"street_number": "P.O. Box 897, 2676 Id, Rd.",
		"postal_code": "9234TT",
		"city": "Saskatoon",
		"province": "Saskatchewan",
		"building_permit_number": "341178460424763"
	},
	{
		"name": "Magna Phasellus Incorporated",
		"build_number": "LB03305941209468711260562784",
		"street_number": "P.O. Box 342, 3777 Risus. St.",
		"postal_code": "60415",
		"city": "Guardia Sanframondi",
		"province": "CAM",
		"building_permit_number": "4146157448878513"
	},
	{
		"name": "Non PC",
		"build_number": "BG06CXYG91581711005485",
		"street_number": "P.O. Box 739, 5699 Facilisis, Av.",
		"postal_code": "82377",
		"city": "Okpoko",
		"province": "Anambra",
		"building_permit_number": "376557994634379"
	},
	{
		"name": "In Faucibus Ltd",
		"build_number": "AT020894787717520474",
		"street_number": "115-3259 Sed Ave",
		"postal_code": "K1W 2A2",
		"city": "Mackay",
		"province": "QLD",
		"building_permit_number": "5313642153893591"
	},
	{
		"name": "Placerat Velit Institute",
		"build_number": "HR6352460562330092925",
		"street_number": "361-7373 Est, Av.",
		"postal_code": "4385",
		"city": "Halkirk",
		"province": "Caithness",
		"building_permit_number": "5330708023533225"
	},
	{
		"name": "Luctus PC",
		"build_number": "PS915216254327636333906609551",
		"street_number": "Ap #297-8870 Sapien St.",
		"postal_code": "2842HP",
		"city": "Göksun",
		"province": "Kah",
		"building_permit_number": "5415656558200710"
	},
	{
		"name": "Metus Inc.",
		"build_number": "FR0682022428289481261432709",
		"street_number": "Ap #388-478 Turpis. Rd.",
		"postal_code": "2379",
		"city": "Norfolk",
		"province": "Virginia",
		"building_permit_number": "4751563972001895"
	},
	{
		"name": "Dolor Dolor Tempus Corp.",
		"build_number": "GE61508837399507121469",
		"street_number": "8915 Enim. St.",
		"postal_code": "8358",
		"city": "Nova Iguaçu",
		"province": "RJ",
		"building_permit_number": "5195877722143190"
	},
	{
		"name": "Pede Praesent Eu Institute",
		"build_number": "IT223FCCZI00256281254709628",
		"street_number": "P.O. Box 684, 4536 Egestas. Ave",
		"postal_code": "03756",
		"city": "Fort Smith",
		"province": "AR",
		"building_permit_number": "5153954928847967"
	},
	{
		"name": "Sem Ltd",
		"build_number": "AD7648364783060555996201",
		"street_number": "694 Dolor St.",
		"postal_code": "9227",
		"city": "Slough",
		"province": "BK",
		"building_permit_number": "376312325214036"
	},
	{
		"name": "Felis Institute",
		"build_number": "LT087497730127348698",
		"street_number": "2926 Sed Rd.",
		"postal_code": "22673",
		"city": "Colwood",
		"province": "British Columbia",
		"building_permit_number": "342594286242034"
	},
	{
		"name": "Molestie Sed Institute",
		"build_number": "RO51UEUT5015827634347118",
		"street_number": "P.O. Box 343, 161 Parturient Road",
		"postal_code": "17551",
		"city": "Alajuela",
		"province": "A",
		"building_permit_number": "5353265265184452"
	},
	{
		"name": "Ante Corp.",
		"build_number": "LU924569836160272048",
		"street_number": "988-5980 Donec Rd.",
		"postal_code": "7759",
		"city": "Palmerston",
		"province": "Northern Territory",
		"building_permit_number": "345186501331626"
	},
	{
		"name": "Ornare Egestas Ligula Corp.",
		"build_number": "GB86HORU28612337312938",
		"street_number": "489-5401 Nunc Ave",
		"postal_code": "678532",
		"city": "Gore",
		"province": "SI",
		"building_permit_number": "342564297007862"
	},
	{
		"name": "Tortor Integer Aliquam Corp.",
		"build_number": "MC2969947262478849888876638",
		"street_number": "654 Eget Rd.",
		"postal_code": "7079VW",
		"city": "Leoben",
		"province": "Stm",
		"building_permit_number": "349417902494315"
	},
	{
		"name": "Arcu Iaculis Incorporated",
		"build_number": "IL181985579528557959781",
		"street_number": "464-4901 Lectus. Av.",
		"postal_code": "65-969",
		"city": "Recife",
		"province": "Pernambuco",
		"building_permit_number": "344006069534457"
	},
	{
		"name": "Urna Nec Luctus Foundation",
		"build_number": "CY55113547524623511993297981",
		"street_number": "Ap #397-9986 Cras Street",
		"postal_code": "726202",
		"city": "Vienna",
		"province": "Wie",
		"building_permit_number": "377855417653916"
	},
	{
		"name": "Mauris Molestie Institute",
		"build_number": "IL218901376743640990255",
		"street_number": "719-5931 Luctus St.",
		"postal_code": "453971",
		"city": "Ostrowiec Świętokrzyski",
		"province": "SK",
		"building_permit_number": "5328620115802620"
	},
	{
		"name": "Elit Fermentum Risus PC",
		"build_number": "MK87671822595689238",
		"street_number": "9415 Nisi. Avenue",
		"postal_code": "40901",
		"city": "San Francisco",
		"province": "H",
		"building_permit_number": "5260421537472866"
	},
	{
		"name": "Malesuada Ltd",
		"build_number": "AD8244895056824275043768",
		"street_number": "177-9403 Nullam Road",
		"postal_code": "8627RV",
		"city": "Bremerhaven",
		"province": "HB",
		"building_permit_number": "376637745941051"
	},
	{
		"name": "Nec Ligula Associates",
		"build_number": "GE74919505073353396773",
		"street_number": "602-2774 Dictum St.",
		"postal_code": "MN3 8RX",
		"city": "Penrith",
		"province": "NSW",
		"building_permit_number": "5317451176978647"
	},
	{
		"name": "Mauris Eu Elit Corporation",
		"build_number": "SA8900582197334902151674",
		"street_number": "Ap #572-9627 Phasellus Rd.",
		"postal_code": "60704",
		"city": "Soria",
		"province": "Castilla y León",
		"building_permit_number": "5264559508431708"
	},
	{
		"name": "Massa Suspendisse Institute",
		"build_number": "PT60076591907303364041826",
		"street_number": "883-8641 Vel, Av.",
		"postal_code": "55493",
		"city": "Subiaco",
		"province": "WA",
		"building_permit_number": "5279872165434066"
	},
	{
		"name": "Ante Incorporated",
		"build_number": "CZ4923103222257296863763",
		"street_number": "Ap #999-7045 Integer Street",
		"postal_code": "906614",
		"city": "Cartago",
		"province": "Cartago",
		"building_permit_number": "5177435773164033"
	},
	{
		"name": "Fusce Aliquet Industries",
		"build_number": "CZ8135983823889018114328",
		"street_number": "8814 Neque. Rd.",
		"postal_code": "757725",
		"city": "Eindhoven",
		"province": "N.",
		"building_permit_number": "5165348991844803"
	},
	{
		"name": "Mauris Blandit Mattis LLP",
		"build_number": "SA2178266225647519999756",
		"street_number": "6488 Diam. St.",
		"postal_code": "76502",
		"city": "Melbourne",
		"province": "Victoria",
		"building_permit_number": "345986696666100"
	},
	{
		"name": "Etiam Imperdiet Ltd",
		"build_number": "MR1474585079299276283907228",
		"street_number": "8469 Sed Av.",
		"postal_code": "181577",
		"city": "Bairnsdale",
		"province": "VIC",
		"building_permit_number": "341912241145966"
	},
	{
		"name": "Metus In Limited",
		"build_number": "SK3378955422647379387297",
		"street_number": "926-8420 Et, Road",
		"postal_code": "97595-683",
		"city": "Columbia",
		"province": "Missouri",
		"building_permit_number": "5144774687704639"
	},
	{
		"name": "Id Ante Dictum Foundation",
		"build_number": "AT713037313319583959",
		"street_number": "847-6651 Neque St.",
		"postal_code": "31519",
		"city": "Sotteville-lès-Rouen",
		"province": "HA",
		"building_permit_number": "5425786289139659"
	},
	{
		"name": "At Arcu Inc.",
		"build_number": "GE57916051804931165569",
		"street_number": "P.O. Box 783, 1907 Velit Avenue",
		"postal_code": "04856",
		"city": "Berlin",
		"province": "Berlin",
		"building_permit_number": "5395976149658671"
	},
	{
		"name": "Gravida Aliquam Tincidunt Company",
		"build_number": "LB72898898189300502566589442",
		"street_number": "Ap #310-9546 Etiam Road",
		"postal_code": "7398SJ",
		"city": "Henley-on-Thames",
		"province": "Oxfordshire",
		"building_permit_number": "5169608386573384"
	},
	{
		"name": "Est Limited",
		"build_number": "PL97338362551633388867532593",
		"street_number": "248-266 Arcu. St.",
		"postal_code": "0034",
		"city": "Antibes",
		"province": "PR",
		"building_permit_number": "5192857720293101"
	},
	{
		"name": "Aliquam Vulputate Ullamcorper Associates",
		"build_number": "DK1065479209538244",
		"street_number": "607-4849 At Street",
		"postal_code": "45-677",
		"city": "Cork",
		"province": "M",
		"building_permit_number": "4910749906161800"
	},
	{
		"name": "Ultrices Ltd",
		"build_number": "AE949770679765042422332",
		"street_number": "7595 Vulputate, Rd.",
		"postal_code": "431823",
		"city": "Sagar",
		"province": "MP",
		"building_permit_number": "4434785204660140"
	},
	{
		"name": "Dui Incorporated",
		"build_number": "GL9628167081185701",
		"street_number": "922-7721 Sed Avenue",
		"postal_code": "83766",
		"city": "Roosendaal",
		"province": "Noord Brabant",
		"building_permit_number": "4472083003260196"
	},
	{
		"name": "Mauris Ltd",
		"build_number": "LV65OIJK9817302451201",
		"street_number": "Ap #525-1183 Lacus. St.",
		"postal_code": "781488",
		"city": "Leighton Buzzard",
		"province": "BD",
		"building_permit_number": "4811348669603460"
	},
	{
		"name": "Ac Consulting",
		"build_number": "FO5829983983660268",
		"street_number": "2048 Erat Ave",
		"postal_code": "57495",
		"city": "Sint-Agatha-Berchem",
		"province": "BU",
		"building_permit_number": "5429383072294297"
	},
	{
		"name": "A PC",
		"build_number": "BH40293695529775544423",
		"street_number": "Ap #604-6670 Lorem Av.",
		"postal_code": "828137",
		"city": "San Jose",
		"province": "CA",
		"building_permit_number": "5155406097425145"
	},
	{
		"name": "Elementum LLP",
		"build_number": "TN6736587859056468564490",
		"street_number": "Ap #458-2873 Pede Street",
		"postal_code": "3127",
		"city": "Wisbech",
		"province": "CA",
		"building_permit_number": "5146922885375094"
	},
	{
		"name": "Dignissim Maecenas Inc.",
		"build_number": "GR8427430859792983601870237",
		"street_number": "P.O. Box 215, 2574 Fringilla Ave",
		"postal_code": "4043",
		"city": "Rendsburg",
		"province": "SL",
		"building_permit_number": "343998737950801"
	},
	{
		"name": "Volutpat Nulla Facilisis Company",
		"build_number": "KW7760075613949908282455326271",
		"street_number": "P.O. Box 400, 8539 Id Rd.",
		"postal_code": "45372",
		"city": "Adelaide",
		"province": "South Australia",
		"building_permit_number": "5168673558109434"
	},
	{
		"name": "Sagittis LLC",
		"build_number": "GB88CAIT45358148829503",
		"street_number": "526-9185 Nibh. Ave",
		"postal_code": "2609",
		"city": "Dublin",
		"province": "Leinster",
		"building_permit_number": "5467577696521764"
	},
	{
		"name": "Amet Massa Quisque LLP",
		"build_number": "SK3316253860479025513029",
		"street_number": "3407 Mi Street",
		"postal_code": "70506",
		"city": "Masterton",
		"province": "NI",
		"building_permit_number": "5477430931483398"
	},
	{
		"name": "Tellus Eu Industries",
		"build_number": "GR5290576810233052275612877",
		"street_number": "872-905 Dui, St.",
		"postal_code": "M4 8YA",
		"city": "Rezé",
		"province": "PA",
		"building_permit_number": "5125413491842334"
	},
	{
		"name": "Sed Dictum Incorporated",
		"build_number": "GI87MPYK448624543339787",
		"street_number": "Ap #140-4268 Cras Ave",
		"postal_code": "8864",
		"city": "Siedlce",
		"province": "Mazowieckie",
		"building_permit_number": "346826039151282"
	},
	{
		"name": "Etiam Vestibulum Massa PC",
		"build_number": "DO78673784694270805748819451",
		"street_number": "7843 In, Avenue",
		"postal_code": "6252",
		"city": "Starachowice",
		"province": "SK",
		"building_permit_number": "5195314414873710"
	},
	{
		"name": "Et PC",
		"build_number": "BH39698717756689281973",
		"street_number": "6439 Vel St.",
		"postal_code": "22954-093",
		"city": "Kapuskasing",
		"province": "Ontario",
		"building_permit_number": "4205259583378212"
	},
	{
		"name": "Dui Foundation",
		"build_number": "TN9123193486904418408922",
		"street_number": "1769 Massa St.",
		"postal_code": "51-996",
		"city": "Issy-les-Moulineaux",
		"province": "Île-de-France",
		"building_permit_number": "5154554703598844"
	},
	{
		"name": "Semper LLC",
		"build_number": "VG4396390486113965756676",
		"street_number": "563-7915 Turpis. St.",
		"postal_code": "7624",
		"city": "Houthalen",
		"province": "L.",
		"building_permit_number": "4411112901289015"
	},
	{
		"name": "A Neque Nullam Inc.",
		"build_number": "MK78868557217856294",
		"street_number": "Ap #346-5490 Mauris. St.",
		"postal_code": "8000",
		"city": "Apeldoorn",
		"province": "Gl",
		"building_permit_number": "4875598740624266"
	},
	{
		"name": "Integer In Ltd",
		"build_number": "GB53TPXR09204870703113",
		"street_number": "794-1158 Lobortis Rd.",
		"postal_code": "9804",
		"city": "Kelowna",
		"province": "BC",
		"building_permit_number": "373699795211669"
	},
	{
		"name": "Pellentesque Ultricies Industries",
		"build_number": "AL38694229489115655481242707",
		"street_number": "P.O. Box 197, 1188 Vitae St.",
		"postal_code": "Y4B 8N8",
		"city": "San Rafael",
		"province": "A",
		"building_permit_number": "5156981975226665"
	},
	{
		"name": "Turpis Limited",
		"build_number": "BH77231061917108373447",
		"street_number": "Ap #845-8169 Et Avenue",
		"postal_code": "1927",
		"city": "Denver",
		"province": "CO",
		"building_permit_number": "5129679278107362"
	},
	{
		"name": "At Incorporated",
		"build_number": "LT734623666894240671",
		"street_number": "8503 Laoreet, Avenue",
		"postal_code": "98609",
		"city": "Wilmont",
		"province": "Ontario",
		"building_permit_number": "5340132011761882"
	},
	{
		"name": "Mauris Rhoncus PC",
		"build_number": "IE51IFAD71301700879413",
		"street_number": "P.O. Box 587, 7751 Non, Rd.",
		"postal_code": "1119",
		"city": "Suruç",
		"province": "Şanlıurfa",
		"building_permit_number": "341818149211812"
	},
	{
		"name": "Dignissim Maecenas Associates",
		"build_number": "HR6019886697703494615",
		"street_number": "689-2452 Molestie Ave",
		"postal_code": "91-290",
		"city": "Vienna",
		"province": "Vienna",
		"building_permit_number": "5336518647316842"
	},
	{
		"name": "Vulputate Consulting",
		"build_number": "PS456187184721936405721483264",
		"street_number": "P.O. Box 682, 3212 Aliquam Av.",
		"postal_code": "11211",
		"city": "Berlin",
		"province": "BE",
		"building_permit_number": "341968771718442"
	},
	{
		"name": "Dignissim Magna Company",
		"build_number": "VG5898307380148469729838",
		"street_number": "Ap #281-6880 Pharetra, Ave",
		"postal_code": "10012",
		"city": "Curitiba",
		"province": "Paraná",
		"building_permit_number": "5331949580619111"
	},
	{
		"name": "Tellus Suspendisse Sed PC",
		"build_number": "NL30QBMY4425299892",
		"street_number": "P.O. Box 612, 4685 Ac Avenue",
		"postal_code": "89608",
		"city": "Montes Claros",
		"province": "Minas Gerais",
		"building_permit_number": "373773325050715"
	},
	{
		"name": "Non Associates",
		"build_number": "FI2287986404264434",
		"street_number": "381-3561 Interdum Rd.",
		"postal_code": "944251",
		"city": "Alphen aan den Rijn",
		"province": "Zuid Holland",
		"building_permit_number": "376820661087525"
	},
	{
		"name": "Dolor Tempus Non Limited",
		"build_number": "LU613020616234618699",
		"street_number": "349-3649 Ac Street",
		"postal_code": "40301",
		"city": "New Plymouth",
		"province": "North Island",
		"building_permit_number": "372157209420116"
	},
	{
		"name": "Non Incorporated",
		"build_number": "EE206719096405223441",
		"street_number": "P.O. Box 847, 8522 Adipiscing Ave",
		"postal_code": "21267",
		"city": "Vitry-sur-Seine",
		"province": "Île-de-France",
		"building_permit_number": "5121942066419862"
	},
	{
		"name": "Nunc Interdum Feugiat Corporation",
		"build_number": "GI18XKVQ602127268057484",
		"street_number": "978-772 Tincidunt Av.",
		"postal_code": "77035-176",
		"city": "Hilo",
		"province": "Hawaii",
		"building_permit_number": "343530723532669"
	},
	{
		"name": "Consectetuer Mauris Ltd",
		"build_number": "PL10796785859672675033196176",
		"street_number": "Ap #685-8784 A Ave",
		"postal_code": "60-497",
		"city": "Chicago",
		"province": "Illinois",
		"building_permit_number": "5339398415819744"
	},
	{
		"name": "Eu Nulla Inc.",
		"build_number": "IS574765316708691140161527",
		"street_number": "Ap #357-7532 Id, Ave",
		"postal_code": "3520",
		"city": "Sluis",
		"province": "Zeeland",
		"building_permit_number": "374686081126330"
	},
	{
		"name": "Et Company",
		"build_number": "KW8728482405254801265800328817",
		"street_number": "2389 Hendrerit. Av.",
		"postal_code": "6678OP",
		"city": "Spijkenisse",
		"province": "Zuid Holland",
		"building_permit_number": "4305230441084139"
	},
	{
		"name": "Parturient Montes Nascetur Associates",
		"build_number": "BH78839615091637668566",
		"street_number": "8077 Ultricies St.",
		"postal_code": "V0L 4S2",
		"city": "Ankara",
		"province": "Ankara",
		"building_permit_number": "342178638551843"
	},
	{
		"name": "Ridiculus Mus LLC",
		"build_number": "TN0648950946643819698312",
		"street_number": "P.O. Box 932, 9113 Tristique St.",
		"postal_code": "5158",
		"city": "Vienna",
		"province": "Vienna",
		"building_permit_number": "343118098578881"
	},
	{
		"name": "Luctus Ut Pellentesque Associates",
		"build_number": "SK3670905753134170832852",
		"street_number": "9709 Eget St.",
		"postal_code": "21214",
		"city": "Bostaniçi",
		"province": "Van",
		"building_permit_number": "341706628501417"
	},
	{
		"name": "Eget Industries",
		"build_number": "DE27637335945168765376",
		"street_number": "6973 Facilisis. Rd.",
		"postal_code": "65770",
		"city": "Vienna",
		"province": "Vienna",
		"building_permit_number": "371642556860575"
	},
	{
		"name": "Neque Sed Company",
		"build_number": "AL73236951358770279087812724",
		"street_number": "592-5070 Luctus Rd.",
		"postal_code": "796356",
		"city": "Oderzo",
		"province": "Veneto",
		"building_permit_number": "5340531916134059"
	},
	{
		"name": "Lorem Incorporated",
		"build_number": "LI2374864176017032952",
		"street_number": "627-2567 Nunc Avenue",
		"postal_code": "S0N 1P0",
		"city": "Baracaldo",
		"province": "Euskadi",
		"building_permit_number": "371341377678799"
	},
	{
		"name": "Et Netus Et Corp.",
		"build_number": "AD4508343066787365703149",
		"street_number": "Ap #320-7656 Ultrices. Avenue",
		"postal_code": "68541",
		"city": "Berlin",
		"province": "Berlin",
		"building_permit_number": "5152710908195000"
	},
	{
		"name": "Nulla Donec Associates",
		"build_number": "HU64250210291474137231261749",
		"street_number": "P.O. Box 673, 4821 Erat Ave",
		"postal_code": "4582",
		"city": "Vienna",
		"province": "Wie",
		"building_permit_number": "349158747015059"
	},
	{
		"name": "Nec Metus Corp.",
		"build_number": "FR6422755812294678776495770",
		"street_number": "314-1004 Mauris Rd.",
		"postal_code": "317344",
		"city": "Elbistan",
		"province": "Kahramanmaraş",
		"building_permit_number": "372180178299083"
	},
	{
		"name": "Commodo Auctor Velit Consulting",
		"build_number": "DO61103975833406760426072397",
		"street_number": "Ap #375-6119 Sodales St.",
		"postal_code": "4914",
		"city": "Vienna",
		"province": "Wie",
		"building_permit_number": "5319697707574812"
	},
	{
		"name": "Diam Nunc Ullamcorper Corp.",
		"build_number": "LT915369289137830429",
		"street_number": "P.O. Box 577, 4677 Orci. Rd.",
		"postal_code": "11910",
		"city": "Patalillo",
		"province": "San José",
		"building_permit_number": "5395673123993917"
	},
	{
		"name": "Ipsum Limited",
		"build_number": "BG97KHDI79733018452355",
		"street_number": "1599 Lorem, Rd.",
		"postal_code": "69-514",
		"city": "Alcalá de Henares",
		"province": "Madrid",
		"building_permit_number": "4229105170443657"
	},
	{
		"name": "Augue Eu Foundation",
		"build_number": "CH2791865800007926565",
		"street_number": "6387 Blandit St.",
		"postal_code": "44257",
		"city": "Canning",
		"province": "WA",
		"building_permit_number": "344009854055940"
	},
	{
		"name": "Nec Institute",
		"build_number": "SK7829962008418303984059",
		"street_number": "5554 Elementum Rd.",
		"postal_code": "0319RG",
		"city": "Vienna",
		"province": "Wie",
		"building_permit_number": "377964877618946"
	},
	{
		"name": "In Hendrerit Consectetuer Associates",
		"build_number": "AT241323992351411039",
		"street_number": "Ap #810-4760 A Avenue",
		"postal_code": "17579",
		"city": "Monte San Savino",
		"province": "TOS",
		"building_permit_number": "5393603888712820"
	},
	{
		"name": "Ridiculus Mus Associates",
		"build_number": "LB54468710182637978942662381",
		"street_number": "685-6139 Convallis St.",
		"postal_code": "51629",
		"city": "Arzano",
		"province": "Campania",
		"building_permit_number": "5125744143631301"
	},
	{
		"name": "Non Magna Nam Inc.",
		"build_number": "SA7865374226431112018866",
		"street_number": "176-7200 Ligula. St.",
		"postal_code": "2117",
		"city": "Berlin",
		"province": "Berlin",
		"building_permit_number": "5199258757289495"
	},
	{
		"name": "Suscipit Corp.",
		"build_number": "BH21373701813480886143",
		"street_number": "350-9337 Vitae Avenue",
		"postal_code": "26422",
		"city": "Lamorteau",
		"province": "Luxemburg",
		"building_permit_number": "373964994512495"
	},
	{
		"name": "Cursus Luctus Institute",
		"build_number": "NL82CLWN7043489965",
		"street_number": "P.O. Box 498, 3598 Arcu Street",
		"postal_code": "34025",
		"city": "Istanbul",
		"province": "Ist",
		"building_permit_number": "4898219130653883"
	},
	{
		"name": "Donec Associates",
		"build_number": "CZ4209536700703195591548",
		"street_number": "1261 Malesuada Street",
		"postal_code": "52614",
		"city": "Overland Park",
		"province": "KS",
		"building_permit_number": "344287399585825"
	},
	{
		"name": "Elementum LLP",
		"build_number": "PL15028245219567272451932820",
		"street_number": "545-9078 Faucibus Avenue",
		"postal_code": "4269",
		"city": "Armidale",
		"province": "NSW",
		"building_permit_number": "5187988532008606"
	},
	{
		"name": "Interdum LLP",
		"build_number": "AD7755615621417763622986",
		"street_number": "P.O. Box 900, 7490 Quam St.",
		"postal_code": "30-091",
		"city": "Colorado Springs",
		"province": "CO",
		"building_permit_number": "4482225694088267"
	},
	{
		"name": "Ad Associates",
		"build_number": "GI36JBZC459911774445250",
		"street_number": "P.O. Box 353, 9236 Sit Ave",
		"postal_code": "128879",
		"city": "Bremerhaven",
		"province": "HB",
		"building_permit_number": "4544192569889126"
	},
	{
		"name": "Interdum Libero Dui LLP",
		"build_number": "FI0334497307668560",
		"street_number": "737-6738 Augue Avenue",
		"postal_code": "461598",
		"city": "Sankt Wendel",
		"province": "SH",
		"building_permit_number": "376763696449801"
	},
	{
		"name": "Porttitor Vulputate Company",
		"build_number": "LU033041398404934146",
		"street_number": "1050 Aliquet, Av.",
		"postal_code": "309940",
		"city": "Napier",
		"province": "NI",
		"building_permit_number": "5339490712308327"
	}
]